{
  "norad_id": 55937,
  "name": "STARLINK-5913",
  "history": [
    {
      "epoch": "2026-03-28T17:55:14.565504Z",
      "apogee_km": 574.154981366024,
      "perigee_km": 569.9515063065519,
      "latitude_deg": 4.799180601461514e-05,
      "longitude_deg": 141.47451438980673,
      "height_km": 574.4880612803913,
      "semi_major_axis_km": 6950.190243836288,
      "eccentricity": 0.0003024,
      "inclination_deg": 69.9996,
      "raan_deg": 236.4479,
      "arg_perigee_deg": 269.7991,
      "mean_anomaly_deg": 90.2822,
      "mean_motion_rev_day": 14.98330856
    }
  ]
}