{"fetched_at":"2026-03-30T06:02:59Z","count":15439,"tles":[{"name":"STARLINK-5913","line1":"1 55937U 23037Z   26087.74669636  .00000098  00000+0  15992-4 0  9990","line2":"2 55937  69.9996 236.4479 0003024 269.7991  90.2822 14.98330856166830","category":"Starlink"}]}